OBJECT_NAME,OBJECT_ID,EPOCH,MEAN_MOTION,ECCENTRICITY,INCLINATION,RA_OF_ASC_NODE,ARG_OF_PERICENTER,MEAN_ANOMALY,EPHEMERIS_TYPE,CLASSIFICATION_TYPE,NORAD_CAT_ID,ELEMENT_SET_NO,REV_AT_EPOCH,BSTAR,MEAN_MOTION_DOT,MEAN_MOTION_DDOT
LUDI TANCE 1-01A (L-SAR 01A),2022-007A,2026-07-01T10:23:50.767008,14.88424373,.0001594,97.8099,189.6506,89.8440,270.2959,0,U,51284,999,24059,.76794061E-4,.658E-5,0
LUDI TANCE 1-01B (L-SAR 01B),2022-018A,2026-07-01T14:25:52.631904,14.88416484,.00016095,97.8104,189.8137,91.7305,268.4096,0,U,51822,999,23585,.76579081E-4,.656E-5,0
2022-023F,2022-023F,2026-07-01T15:18:06.656256,15.17970009,.0131898,63.4435,224.3549,341.9571,17.6881,0,U,51951,999,23990,.27581306E-3,.6821E-4,0
MERIDIAN 10,2022-030A,2026-06-30T10:17:13.314048,2.00611999,.6787535,62.6789,139.3592,272.8497,17.6300,0,U,52145,999,3129,0,.159E-5,0
OMNI-L1,2022-033A,2026-07-01T05:09:55.538496,14.82801097,.0004185,97.8396,261.1201,226.4417,133.6450,0,U,52157,999,22953,.30641708E-3,.2426E-4,0
ENMAP,2022-033C,2026-07-01T13:08:05.119872,14.74932942,.00014941,97.9800,264.5937,76.5699,283.5677,0,U,52159,999,22877,.13661962E-3,.867E-5,0
ARCSAT-1,2022-033E,2026-07-01T13:14:12.706944,15.53963593,.00060411,97.2760,275.0409,134.5553,225.6195,0,U,52161,999,23793,.24139664E-3,.15505E-3,0
GLOBAL-18,2022-034B,2026-07-01T06:40:44.894496,15.46750614,.00038966,52.9793,189.2688,342.1406,17.9462,0,U,52196,999,23914,.42001387E-3,.20994E-3,0
GAOFEN-3 03,2022-035A,2026-07-01T14:10:55.538976,14.42216797,.00015902,98.4056,190.9620,96.3163,263.8208,0,U,52200,999,22292,.22797288E-4,.32E-6,0
DAQI-1,2022-039A,2026-07-01T15:05:45.396960,14.57685179,.00029217,98.1488,121.1826,189.5598,170.5546,0,U,52257,999,22404,.42824416E-4,.15E-5,0
BRO-6,2022-047AE,2026-07-01T14:08:46.929984,15.51557803,.0003759,97.3404,273.9298,22.8447,337.2972,0,U,52422,999,23338,.89750511E-3,.53342E-3,0
JILIN-1 GAOFEN 3D27,2022-048B,2026-07-01T14:56:05.831808,15.79021331,.00032262,97.5733,297.9050,280.3907,79.6996,0,U,52444,999,23175,.9381968E-3,.168856E-2,0
JILIN-1 GAOFEN 3D28,2022-048C,2026-07-01T14:10:26.936256,15.82837396,.00027511,97.5660,298.0865,256.1476,103.9486,0,U,52445,999,23180,.92749618E-3,.199411E-2,0
VIGORIDE-3,2022-057AE,2026-07-01T10:24:05.866272,15.27427600,.00096583,97.6626,322.7870,77.4236,282.8082,0,U,52760,999,22733,.24954524E-3,.6629E-4,0
ION SCV-006,2022-057AF,2026-07-01T03:37:00.596640,15.45623871,.00179031,97.6117,331.4457,66.4157,293.8969,0,U,52761,999,22827,.33894629E-3,.16338E-3,0
SHERPA-AC1,2022-057AH,2026-07-01T03:14:43.977408,15.36458042,.00083853,97.6702,331.9449,50.6585,309.5400,0,U,52763,999,22784,.25898617E-3,.9136E-4,0
OMNI-L2,2022-057AR,2026-07-01T10:36:51.500736,14.81408309,.00050848,97.4709,243.8426,278.2950,81.7687,0,U,52771,999,22250,.20759438E-3,.1576E-4,0
STEP CUBE LAB-II,2022-065D,2026-07-01T15:10:21.597888,14.63324863,.00082801,98.2243,326.4899,349.1598,10.9424,0,U,52897,999,21361,.15520713E-3,.753E-5,0
RANDEV,2022-065E,2026-07-01T15:06:24.350400,14.63712610,.00076409,98.2227,326.8453,350.2356,9.8697,0,U,52898,999,21336,.1396578E-3,.679E-5,0
SNUGLITE-II,2022-065F,2026-07-01T07:29:15.609408,14.64373635,.00070303,98.2219,327.1186,349.6494,10.4562,0,U,52899,999,21306,.21130937E-3,.1068E-4,0
MIMAN,2022-065G,2026-07-01T15:03:36.834624,14.61859259,.00072278,98.2280,325.0384,350.9243,9.1826,0,U,52900,999,21255,.12655336E-3,.585E-5,0
STARLINK-4362,2022-077A,2026-07-01T11:42:18.457632,15.05653943,.00019624,97.2902,0.6980,88.9337,271.2115,0,U,53043,999,21803,-.24331554E-4,-.407E-5,0
LARES-2,2022-080A,2026-06-26T09:41:16.046016,6.38965133,.0005264,70.1592,302.1681,334.1364,25.8897,0,U,53105,999,9225,0,-.28E-6,0
GREENCUBE (IO-117),2022-080E,2026-06-30T17:23:31.202880,6.42583253,.00089588,70.1437,293.5372,286.6703,73.2973,0,U,53109,999,9293,0,-.3E-7,0
STARLINK-4410,2022-084R,2026-07-01T14:00:01.999872,15.38006152,.0001383,97.6006,244.1007,94.4324,40.4971,0,U,53204,999,579,.10580343E-1,.417366E-2,0
COSMOS 2558,2022-089A,2026-07-01T11:46:25.629024,15.78292621,.0002664,97.2255,287.1682,243.8138,116.2855,0,U,53323,999,22008,.80594E-3,.139889E-2,0
TECMS,2022-090A,2026-07-01T15:04:30.902016,15.21505061,.00047648,97.3133,250.3293,134.5296,225.6330,0,U,53346,999,21700,.18009828E-3,.3986E-4,0
