LUDI TANCE 1-01A (L-SA*)
1 51284U 22007A   26182.43322647  .00000658  00000+0  76794-4 0  9996
2 51284  97.8099 189.6506 0001594  89.8440 270.2959 14.88424373240599
LUDI TANCE 1-01B (L-SA*)
1 51822U 22018A   26182.60130361  .00000656  00000+0  76579-4 0  9994
2 51822  97.8104 189.8137 0001609  91.7305 268.4096 14.88416484235853
2022-023F               
1 51951U 22023F   26182.63757704  .00006821  00000+0  27581-3 0  9990
2 51951  63.4435 224.3549 0131898 341.9571  17.6881 15.17970009239900
MERIDIAN 10             
1 52145U 22030A   26181.42862632  .00000159  00000+0  00000+0 0  9998
2 52145  62.6789 139.3592 6787535 272.8497  17.6300  2.00611999 31298
OMNI-L1                 
1 52157U 22033A   26182.21522614  .00002426  00000+0  30642-3 0  9993
2 52157  97.8396 261.1201 0004185 226.4417 133.6450 14.82801097229534
ENMAP                   
1 52159U 22033C   26182.54728148  .00000867  00000+0  13662-3 0  9991
2 52159  97.9800 264.5937 0001494  76.5699 283.5677 14.74932942228772
ARCSAT-1                
1 52161U 22033E   26182.55153596  .00015505  00000+0  24140-3 0  9992
2 52161  97.2760 275.0409 0006041 134.5553 225.6195 15.53963593237935
GLOBAL-18               
1 52196U 22034B   26182.27829739  .00020994  00000+0  42001-3 0  9993
2 52196  52.9793 189.2688 0003896 342.1406  17.9462 15.46750614239145
GAOFEN-3 03             
1 52200U 22035A   26182.59092059  .00000032  00000+0  22797-4 0  9994
2 52200  98.4056 190.9620 0001590  96.3163 263.8208 14.42216797222922
DAQI-1                  
1 52257U 22039A   26182.62899765  .00000150  00000+0  42824-4 0  9997
2 52257  98.1488 121.1826 0002921 189.5598 170.5546 14.57685179224044
BRO-6                   
1 52422U 22047AE  26182.58943206  .00053342  00000+0  89751-3 0  9995
2 52422  97.3404 273.9298 0003759  22.8447 337.2972 15.51557803233387
JILIN-1 GAOFEN 3D27     
1 52444U 22048B   26182.62228972  .00168856  00000+0  93820-3 0  9990
2 52444  97.5733 297.9050 0003226 280.3907  79.6996 15.79021331231755
JILIN-1 GAOFEN 3D28     
1 52445U 22048C   26182.59058954  .00199411  00000+0  92750-3 0  9990
2 52445  97.5660 298.0865 0002751 256.1476 103.9486 15.82837396231806
VIGORIDE-3              
1 52760U 22057AE  26182.43340123  .00006629  00000+0  24955-3 0  9995
2 52760  97.6626 322.7870 0009658  77.4236 282.8082 15.27427600227335
ION SCV-006             
1 52761U 22057AF  26182.15070135  .00016338  00000+0  33895-3 0  9999
2 52761  97.6117 331.4457 0017903  66.4157 293.8969 15.45623871228279
SHERPA-AC1              
1 52763U 22057AH  26182.13523122  .00009136  00000+0  25899-3 0  9991
2 52763  97.6702 331.9449 0008385  50.6585 309.5400 15.36458042227844
OMNI-L2                 
1 52771U 22057AR  26182.44226274  .00001576  00000+0  20759-3 0  9992
2 52771  97.4709 243.8426 0005084 278.2950  81.7687 14.81408309222505
STEP CUBE LAB-II        
1 52897U 22065D   26182.63219442  .00000753  00000+0  15521-3 0  9997
2 52897  98.2243 326.4899 0008280 349.1598  10.9424 14.63324863213612
RANDEV                  
1 52898U 22065E   26182.62944850  .00000679  00000+0  13966-3 0  9993
2 52898  98.2227 326.8453 0007640 350.2356   9.8697 14.63712610213361
SNUGLITE-II             
1 52899U 22065F   26182.31198622  .00001068  00000+0  21131-3 0  9994
2 52899  98.2219 327.1186 0007030 349.6494  10.4562 14.64373635213065
MIMAN                   
1 52900U 22065G   26182.62750966  .00000585  00000+0  12655-3 0  9990
2 52900  98.2280 325.0384 0007227 350.9243   9.1826 14.61859259212557
STARLINK-4362           
1 53043U 22077A   26182.48771363 -.00000407  00000+0 -24332-4 0  9991
2 53043  97.2902   0.6980 0001962  88.9337 271.2115 15.05653943218039
LARES-2                 
1 53105U 22080A   26177.40365794 -.00000028  00000+0  00000+0 0  9996
2 53105  70.1592 302.1681 0005264 334.1364  25.8897  6.38965133 92253
GREENCUBE (IO-117)      
1 53109U 22080E   26181.72466670 -.00000003  00000+0  00000+0 0  9998
2 53109  70.1437 293.5372 0008958 286.6703  73.2973  6.42583253 92937
STARLINK-4410           
1 53204U 22084R   26182.58335648  .00417366  00000+0  10580-1 0  9992
2 53204  97.6006 244.1007 0001383  94.4324  40.4971 15.38006152  5790
COSMOS 2558             
1 53323U 22089A   26182.49057441  .00139889  00000+0  80594-3 0  9996
2 53323  97.2255 287.1682 0002664 243.8138 116.2855 15.78292621220082
TECMS                   
1 53346U 22090A   26182.62813544  .00003986  00000+0  18010-3 0  9994
2 53346  97.3133 250.3293 0004764 134.5296 225.6330 15.21505061217001
